ALOS (DAICHI)           
1 28931U 06002A   26057.81471840  .00001389  00000+0  24117-3 0  9992
2 28931  98.1198  13.8264 0001414  53.1618 306.9717 14.69767871 71882
RESURS-DK 1             
1 29228U 06021A   26057.49245026  .00002261  00000+0  13512-3 0  9999
2 29228  69.9311 265.9890 0002755 169.9578 190.1643 15.12662443 85839
CZ-4B R/B               
1 29507U 06046C   26057.39456037  .00005194  00000+0  26477-3 0  9993
2 29507  97.5626 102.3338 0031975 308.4374  51.3990 15.16768553 58337
CZ-2C R/B               
1 31114U 07010B   26057.31295825  .00000107  00000+0  68096-4 0  9993
2 31114  98.3974 171.1624 0058292 328.2144  31.5519 14.20241612978106
SL-16 R/B               
1 31793U 07029B   26057.53608401 -.00000226  00000+0 -92376-4 0  9990
2 31793  70.9755 195.8282 0002473 280.1276 149.7249 14.14835261963790
KORONAS-FOTON           
1 33504U 09003A   26057.35173852  .00012756  00000+0  28801-3 0  9993
2 33504  82.4296 287.6635 0010228 189.1102 170.9961 15.43006553943999
CZ-2C R/B               
1 37731U 11030B   26057.86318913  .00001688  00000+0  21866-3 0  9993
2 37731  97.8523  15.3451 0053431  27.0963 353.4784 14.81171088788498
H-2A R/B                
1 38341U 12025E   26057.81980643  .00003681  00000+0  33586-3 0  9993
2 38341  98.4701  23.9987 0044541 350.0831   9.9504 14.95054860746596
