CCSDS_OMM_VERS = 2.0
CREATION_DATE  = 
ORIGINATOR     = 

OBJECT_NAME    = ALOS (DAICHI)
OBJECT_ID      = 2006-002A
CENTER_NAME    = EARTH
REF_FRAME      = TEME
TIME_SYSTEM    = UTC
MEAN_ELEMENT_THEORY = SGP/SGP4

EPOCH          = 2026-02-26T19:33:11.668896
MEAN_MOTION    = 14.69767871
ECCENTRICITY   = .0001414
INCLINATION    = 98.1198
RA_OF_ASC_NODE = 13.8264
ARG_OF_PERICENTER = 53.1618
MEAN_ANOMALY   = 306.9717

EPHEMERIS_TYPE = 0
CLASSIFICATION_TYPE = U
NORAD_CAT_ID   = 28931
ELEMENT_SET_NO = 999
REV_AT_EPOCH   = 7188
BSTAR          = .24117E-3
MEAN_MOTION_DOT = .1389E-4
MEAN_MOTION_DDOT = 0

CCSDS_OMM_VERS = 2.0
CREATION_DATE  = 
ORIGINATOR     = 

OBJECT_NAME    = RESURS-DK 1
OBJECT_ID      = 2006-021A
CENTER_NAME    = EARTH
REF_FRAME      = TEME
TIME_SYSTEM    = UTC
MEAN_ELEMENT_THEORY = SGP/SGP4

EPOCH          = 2026-02-26T11:49:07.702464
MEAN_MOTION    = 15.12662443
ECCENTRICITY   = .0002755
INCLINATION    = 69.9311
RA_OF_ASC_NODE = 265.9890
ARG_OF_PERICENTER = 169.9578
MEAN_ANOMALY   = 190.1643

EPHEMERIS_TYPE = 0
CLASSIFICATION_TYPE = U
NORAD_CAT_ID   = 29228
ELEMENT_SET_NO = 999
REV_AT_EPOCH   = 8583
BSTAR          = .13512E-3
MEAN_MOTION_DOT = .2261E-4
MEAN_MOTION_DDOT = 0

CCSDS_OMM_VERS = 2.0
CREATION_DATE  = 
ORIGINATOR     = 

OBJECT_NAME    = CZ-4B R/B
OBJECT_ID      = 2006-046C
CENTER_NAME    = EARTH
REF_FRAME      = TEME
TIME_SYSTEM    = UTC
MEAN_ELEMENT_THEORY = SGP/SGP4

EPOCH          = 2026-02-26T09:28:10.015968
MEAN_MOTION    = 15.16768553
ECCENTRICITY   = .0031975
INCLINATION    = 97.5626
RA_OF_ASC_NODE = 102.3338
ARG_OF_PERICENTER = 308.4374
MEAN_ANOMALY   = 51.3990

EPHEMERIS_TYPE = 0
CLASSIFICATION_TYPE = U
NORAD_CAT_ID   = 29507
ELEMENT_SET_NO = 999
REV_AT_EPOCH   = 5833
BSTAR          = .26477E-3
MEAN_MOTION_DOT = .5194E-4
MEAN_MOTION_DDOT = 0

CCSDS_OMM_VERS = 2.0
CREATION_DATE  = 
ORIGINATOR     = 

OBJECT_NAME    = CZ-2C R/B
OBJECT_ID      = 2007-010B
CENTER_NAME    = EARTH
REF_FRAME      = TEME
TIME_SYSTEM    = UTC
MEAN_ELEMENT_THEORY = SGP/SGP4

EPOCH          = 2026-02-26T07:30:39.592800
MEAN_MOTION    = 14.20241612
ECCENTRICITY   = .0058292
INCLINATION    = 98.3974
RA_OF_ASC_NODE = 171.1624
ARG_OF_PERICENTER = 328.2144
MEAN_ANOMALY   = 31.5519

EPHEMERIS_TYPE = 0
CLASSIFICATION_TYPE = U
NORAD_CAT_ID   = 31114
ELEMENT_SET_NO = 999
REV_AT_EPOCH   = 97810
BSTAR          = .68096E-4
MEAN_MOTION_DOT = .107E-5
MEAN_MOTION_DDOT = 0

CCSDS_OMM_VERS = 2.0
CREATION_DATE  = 
ORIGINATOR     = 

OBJECT_NAME    = SL-16 R/B
OBJECT_ID      = 2007-029B
CENTER_NAME    = EARTH
REF_FRAME      = TEME
TIME_SYSTEM    = UTC
MEAN_ELEMENT_THEORY = SGP/SGP4

EPOCH          = 2026-02-26T12:51:57.658464
MEAN_MOTION    = 14.14835261
ECCENTRICITY   = .0002473
INCLINATION    = 70.9755
RA_OF_ASC_NODE = 195.8282
ARG_OF_PERICENTER = 280.1276
MEAN_ANOMALY   = 149.7249

EPHEMERIS_TYPE = 0
CLASSIFICATION_TYPE = U
NORAD_CAT_ID   = 31793
ELEMENT_SET_NO = 999
REV_AT_EPOCH   = 96379
BSTAR          = -.92376E-4
MEAN_MOTION_DOT = -.226E-5
MEAN_MOTION_DDOT = 0

CCSDS_OMM_VERS = 2.0
CREATION_DATE  = 
ORIGINATOR     = 

OBJECT_NAME    = KORONAS-FOTON
OBJECT_ID      = 2009-003A
CENTER_NAME    = EARTH
REF_FRAME      = TEME
TIME_SYSTEM    = UTC
MEAN_ELEMENT_THEORY = SGP/SGP4

EPOCH          = 2026-02-26T08:26:30.208128
MEAN_MOTION    = 15.43006553
ECCENTRICITY   = .0010228
INCLINATION    = 82.4296
RA_OF_ASC_NODE = 287.6635
ARG_OF_PERICENTER = 189.1102
MEAN_ANOMALY   = 170.9961

EPHEMERIS_TYPE = 0
CLASSIFICATION_TYPE = U
NORAD_CAT_ID   = 33504
ELEMENT_SET_NO = 999
REV_AT_EPOCH   = 94399
BSTAR          = .28801E-3
MEAN_MOTION_DOT = .12756E-3
MEAN_MOTION_DDOT = 0

CCSDS_OMM_VERS = 2.0
CREATION_DATE  = 
ORIGINATOR     = 

OBJECT_NAME    = CZ-2C R/B
OBJECT_ID      = 2011-030B
CENTER_NAME    = EARTH
REF_FRAME      = TEME
TIME_SYSTEM    = UTC
MEAN_ELEMENT_THEORY = SGP/SGP4

EPOCH          = 2026-02-26T20:42:59.540832
MEAN_MOTION    = 14.81171087
ECCENTRICITY   = .0053431
INCLINATION    = 97.8523
RA_OF_ASC_NODE = 15.3451
ARG_OF_PERICENTER = 27.0963
MEAN_ANOMALY   = 353.4784

EPHEMERIS_TYPE = 0
CLASSIFICATION_TYPE = U
NORAD_CAT_ID   = 37731
ELEMENT_SET_NO = 999
REV_AT_EPOCH   = 78849
BSTAR          = .21866E-3
MEAN_MOTION_DOT = .1688E-4
MEAN_MOTION_DDOT = 0

CCSDS_OMM_VERS = 2.0
CREATION_DATE  = 
ORIGINATOR     = 

OBJECT_NAME    = H-2A R/B
OBJECT_ID      = 2012-025E
CENTER_NAME    = EARTH
REF_FRAME      = TEME
TIME_SYSTEM    = UTC
MEAN_ELEMENT_THEORY = SGP/SGP4

EPOCH          = 2026-02-26T19:40:31.274688
MEAN_MOTION    = 14.95054860
ECCENTRICITY   = .0044541
INCLINATION    = 98.4701
RA_OF_ASC_NODE = 23.9987
ARG_OF_PERICENTER = 350.0831
MEAN_ANOMALY   = 9.9504

EPHEMERIS_TYPE = 0
CLASSIFICATION_TYPE = U
NORAD_CAT_ID   = 38341
ELEMENT_SET_NO = 999
REV_AT_EPOCH   = 74659
BSTAR          = .33586E-3
MEAN_MOTION_DOT = .3681E-4
MEAN_MOTION_DDOT = 0

